STARLINK-36713          
1 67701U 26025J   26048.25002315 -.01437473  62703-3 -32074-2 0  9994
2 67701  97.2769 158.6852 0001454  50.4717 303.4794 15.97917201  2729
STARLINK-36695          
1 67702U 26025K   26048.25002315 -.01423114  61674-3 -31421-2 0  9993
2 67702  97.2767 158.6866 0001533  51.6869 306.1340 15.98106050  2564
STARLINK-36630          
1 67703U 26025L   26048.25002315 -.01414847  61134-3 -30924-2 0  9995
2 67703  97.2766 158.6886 0001478  49.5207 312.0589 15.98288325  2563
STARLINK-36338          
1 67704U 26025M   26048.25002315 -.01402633  60327-3 -30226-2 0  9994
2 67704  97.2764 158.6905 0001412  54.9204 311.5550 15.98542649  2619
STARLINK-36316          
1 67705U 26025N   26048.25002315 -.01392717  59879-3 -29160-2 0  9991
2 67705  97.2760 158.6947 0001521  49.8188 326.4929 15.99058570  2618
STARLINK-36707          
1 67706U 26025P   26048.25002315 -.01384021  59365-3 -28542-2 0  9994
2 67706  97.2757 158.6971 0001558  46.1162 335.3068 15.99327920  2402
STARLINK-36645          
1 67707U 26025Q   26048.25002315 -.01404381  60667-3 -29759-2 0  9995
2 67707  97.2759 158.6923 0001530  51.7637 320.3272 15.98844664  2174
STARLINK-36287          
1 67708U 26025R   26048.25002315 -.01374886  58788-3 -27996-2 0  9994
2 67708  97.2754 158.6983 0001513  52.5064 333.3435 15.99553460  2728
STARLINK-36698          
1 67709U 26025S   26048.25002315 -.01330582  55880-3 -25764-2 0  9991
2 67709  97.2751 158.7056 0001492  47.0141 355.5289 16.00437924  2563
STARLINK-36344          
1 67710U 26025T   26048.25002315 -.01350717  57102-3 -26984-2 0  9999
2 67710  97.2754 158.7013 0001336  56.4649 335.7576 15.99889306  2724
STARLINK-36687          
1 67711U 26025U   26048.25002315 -.01353005  57447-3 -26637-2 0  9990
2 67711  97.2752 158.7034 0001642  48.9711 348.0875 16.00147633  2724
STARLINK-36705          
1 67712U 26025V   26048.25002315 -.01321410  55356-3 -25151-2 0  9993
2 67712  97.2746 158.7077 0001480  49.6133 358.6242 16.00737882  2626
