CCSDS_OMM_VERS = 2.0
CREATION_DATE  = 
ORIGINATOR     = 

OBJECT_NAME    = STARLINK-36713
OBJECT_ID      = 2026-025J
CENTER_NAME    = EARTH
REF_FRAME      = TEME
TIME_SYSTEM    = UTC
MEAN_ELEMENT_THEORY = SGP/SGP4

EPOCH          = 2026-02-17T06:00:02.000160
MEAN_MOTION    = 15.97917201
ECCENTRICITY   = .00014548
INCLINATION    = 97.2769
RA_OF_ASC_NODE = 158.6852
ARG_OF_PERICENTER = 50.4717
MEAN_ANOMALY   = 303.4794

EPHEMERIS_TYPE = 0
CLASSIFICATION_TYPE = U
NORAD_CAT_ID   = 67701
ELEMENT_SET_NO = 999
REV_AT_EPOCH   = 272
BSTAR          = -.32074251E-2
MEAN_MOTION_DOT = -.1437473E-1
MEAN_MOTION_DDOT = .62702822E-3

CCSDS_OMM_VERS = 2.0
CREATION_DATE  = 
ORIGINATOR     = 

OBJECT_NAME    = STARLINK-36695
OBJECT_ID      = 2026-025K
CENTER_NAME    = EARTH
REF_FRAME      = TEME
TIME_SYSTEM    = UTC
MEAN_ELEMENT_THEORY = SGP/SGP4

EPOCH          = 2026-02-17T06:00:02.000160
MEAN_MOTION    = 15.98106050
ECCENTRICITY   = .00015339
INCLINATION    = 97.2767
RA_OF_ASC_NODE = 158.6866
ARG_OF_PERICENTER = 51.6869
MEAN_ANOMALY   = 306.1340

EPHEMERIS_TYPE = 0
CLASSIFICATION_TYPE = U
NORAD_CAT_ID   = 67702
ELEMENT_SET_NO = 999
REV_AT_EPOCH   = 256
BSTAR          = -.31421173E-2
MEAN_MOTION_DOT = -.1423114E-1
MEAN_MOTION_DDOT = .61674084E-3

CCSDS_OMM_VERS = 2.0
CREATION_DATE  = 
ORIGINATOR     = 

OBJECT_NAME    = STARLINK-36630
OBJECT_ID      = 2026-025L
CENTER_NAME    = EARTH
REF_FRAME      = TEME
TIME_SYSTEM    = UTC
MEAN_ELEMENT_THEORY = SGP/SGP4

EPOCH          = 2026-02-17T06:00:02.000160
MEAN_MOTION    = 15.98288325
ECCENTRICITY   = .00014782
INCLINATION    = 97.2766
RA_OF_ASC_NODE = 158.6886
ARG_OF_PERICENTER = 49.5207
MEAN_ANOMALY   = 312.0589

EPHEMERIS_TYPE = 0
CLASSIFICATION_TYPE = U
NORAD_CAT_ID   = 67703
ELEMENT_SET_NO = 999
REV_AT_EPOCH   = 256
BSTAR          = -.30923998E-2
MEAN_MOTION_DOT = -.1414847E-1
MEAN_MOTION_DDOT = .61133593E-3

CCSDS_OMM_VERS = 2.0
CREATION_DATE  = 
ORIGINATOR     = 

OBJECT_NAME    = STARLINK-36338
OBJECT_ID      = 2026-025M
CENTER_NAME    = EARTH
REF_FRAME      = TEME
TIME_SYSTEM    = UTC
MEAN_ELEMENT_THEORY = SGP/SGP4

EPOCH          = 2026-02-17T06:00:02.000160
MEAN_MOTION    = 15.98542649
ECCENTRICITY   = .00014121
INCLINATION    = 97.2764
RA_OF_ASC_NODE = 158.6905
ARG_OF_PERICENTER = 54.9204
MEAN_ANOMALY   = 311.5550

EPHEMERIS_TYPE = 0
CLASSIFICATION_TYPE = U
NORAD_CAT_ID   = 67704
ELEMENT_SET_NO = 999
REV_AT_EPOCH   = 261
BSTAR          = -.30225668E-2
MEAN_MOTION_DOT = -.1402633E-1
MEAN_MOTION_DDOT = .60327243E-3

CCSDS_OMM_VERS = 2.0
CREATION_DATE  = 
ORIGINATOR     = 

OBJECT_NAME    = STARLINK-36316
OBJECT_ID      = 2026-025N
CENTER_NAME    = EARTH
REF_FRAME      = TEME
TIME_SYSTEM    = UTC
MEAN_ELEMENT_THEORY = SGP/SGP4

EPOCH          = 2026-02-17T06:00:02.000160
MEAN_MOTION    = 15.99058570
ECCENTRICITY   = .00015218
INCLINATION    = 97.2760
RA_OF_ASC_NODE = 158.6947
ARG_OF_PERICENTER = 49.8188
MEAN_ANOMALY   = 326.4929

EPHEMERIS_TYPE = 0
CLASSIFICATION_TYPE = U
NORAD_CAT_ID   = 67705
ELEMENT_SET_NO = 999
REV_AT_EPOCH   = 261
BSTAR          = -.29159757E-2
MEAN_MOTION_DOT = -.1392717E-1
MEAN_MOTION_DDOT = .59878648E-3

CCSDS_OMM_VERS = 2.0
CREATION_DATE  = 
ORIGINATOR     = 

OBJECT_NAME    = STARLINK-36707
OBJECT_ID      = 2026-025P
CENTER_NAME    = EARTH
REF_FRAME      = TEME
TIME_SYSTEM    = UTC
MEAN_ELEMENT_THEORY = SGP/SGP4

EPOCH          = 2026-02-17T06:00:02.000160
MEAN_MOTION    = 15.99327920
ECCENTRICITY   = .00015587
INCLINATION    = 97.2757
RA_OF_ASC_NODE = 158.6971
ARG_OF_PERICENTER = 46.1162
MEAN_ANOMALY   = 335.3068

EPHEMERIS_TYPE = 0
CLASSIFICATION_TYPE = U
NORAD_CAT_ID   = 67706
ELEMENT_SET_NO = 999
REV_AT_EPOCH   = 240
BSTAR          = -.28542297E-2
MEAN_MOTION_DOT = -.1384021E-1
MEAN_MOTION_DDOT = .59364729E-3

CCSDS_OMM_VERS = 2.0
CREATION_DATE  = 
ORIGINATOR     = 

OBJECT_NAME    = STARLINK-36645
OBJECT_ID      = 2026-025Q
CENTER_NAME    = EARTH
REF_FRAME      = TEME
TIME_SYSTEM    = UTC
MEAN_ELEMENT_THEORY = SGP/SGP4

EPOCH          = 2026-02-17T06:00:02.000160
MEAN_MOTION    = 15.98844664
ECCENTRICITY   = .00015307
INCLINATION    = 97.2759
RA_OF_ASC_NODE = 158.6923
ARG_OF_PERICENTER = 51.7637
MEAN_ANOMALY   = 320.3272

EPHEMERIS_TYPE = 0
CLASSIFICATION_TYPE = U
NORAD_CAT_ID   = 67707
ELEMENT_SET_NO = 999
REV_AT_EPOCH   = 217
BSTAR          = -.29759463E-2
MEAN_MOTION_DOT = -.1404381E-1
MEAN_MOTION_DDOT = .60667414E-3

CCSDS_OMM_VERS = 2.0
CREATION_DATE  = 
ORIGINATOR     = 

OBJECT_NAME    = STARLINK-36287
OBJECT_ID      = 2026-025R
CENTER_NAME    = EARTH
REF_FRAME      = TEME
TIME_SYSTEM    = UTC
MEAN_ELEMENT_THEORY = SGP/SGP4

EPOCH          = 2026-02-17T06:00:02.000160
MEAN_MOTION    = 15.99553460
ECCENTRICITY   = .00015133
INCLINATION    = 97.2754
RA_OF_ASC_NODE = 158.6983
ARG_OF_PERICENTER = 52.5064
MEAN_ANOMALY   = 333.3435

EPHEMERIS_TYPE = 0
CLASSIFICATION_TYPE = U
NORAD_CAT_ID   = 67708
ELEMENT_SET_NO = 999
REV_AT_EPOCH   = 272
BSTAR          = -.27995628E-2
MEAN_MOTION_DOT = -.1374886E-1
MEAN_MOTION_DDOT = .58788094E-3

CCSDS_OMM_VERS = 2.0
CREATION_DATE  = 
ORIGINATOR     = 

OBJECT_NAME    = STARLINK-36698
OBJECT_ID      = 2026-025S
CENTER_NAME    = EARTH
REF_FRAME      = TEME
TIME_SYSTEM    = UTC
MEAN_ELEMENT_THEORY = SGP/SGP4

EPOCH          = 2026-02-17T06:00:02.000160
MEAN_MOTION    = 16.00437924
ECCENTRICITY   = .00014924
INCLINATION    = 97.2751
RA_OF_ASC_NODE = 158.7056
ARG_OF_PERICENTER = 47.0141
MEAN_ANOMALY   = 355.5289

EPHEMERIS_TYPE = 0
CLASSIFICATION_TYPE = U
NORAD_CAT_ID   = 67709
ELEMENT_SET_NO = 999
REV_AT_EPOCH   = 256
BSTAR          = -.25763864E-2
MEAN_MOTION_DOT = -.1330582E-1
MEAN_MOTION_DDOT = .55879565E-3

CCSDS_OMM_VERS = 2.0
CREATION_DATE  = 
ORIGINATOR     = 

OBJECT_NAME    = STARLINK-36344
OBJECT_ID      = 2026-025T
CENTER_NAME    = EARTH
REF_FRAME      = TEME
TIME_SYSTEM    = UTC
MEAN_ELEMENT_THEORY = SGP/SGP4

EPOCH          = 2026-02-17T06:00:02.000160
MEAN_MOTION    = 15.99889306
ECCENTRICITY   = .00013369
INCLINATION    = 97.2754
RA_OF_ASC_NODE = 158.7013
ARG_OF_PERICENTER = 56.4649
MEAN_ANOMALY   = 335.7576

EPHEMERIS_TYPE = 0
CLASSIFICATION_TYPE = U
NORAD_CAT_ID   = 67710
ELEMENT_SET_NO = 999
REV_AT_EPOCH   = 272
BSTAR          = -.2698388E-2
MEAN_MOTION_DOT = -.1350717E-1
MEAN_MOTION_DDOT = .57102313E-3

CCSDS_OMM_VERS = 2.0
CREATION_DATE  = 
ORIGINATOR     = 

OBJECT_NAME    = STARLINK-36687
OBJECT_ID      = 2026-025U
CENTER_NAME    = EARTH
REF_FRAME      = TEME
TIME_SYSTEM    = UTC
MEAN_ELEMENT_THEORY = SGP/SGP4

EPOCH          = 2026-02-17T06:00:02.000160
MEAN_MOTION    = 16.00147633
ECCENTRICITY   = .00016424
INCLINATION    = 97.2752
RA_OF_ASC_NODE = 158.7034
ARG_OF_PERICENTER = 48.9711
MEAN_ANOMALY   = 348.0875

EPHEMERIS_TYPE = 0
CLASSIFICATION_TYPE = U
NORAD_CAT_ID   = 67711
ELEMENT_SET_NO = 999
REV_AT_EPOCH   = 272
BSTAR          = -.26636979E-2
MEAN_MOTION_DOT = -.1353005E-1
MEAN_MOTION_DDOT = .57447406E-3

CCSDS_OMM_VERS = 2.0
CREATION_DATE  = 
ORIGINATOR     = 

OBJECT_NAME    = STARLINK-36705
OBJECT_ID      = 2026-025V
CENTER_NAME    = EARTH
REF_FRAME      = TEME
TIME_SYSTEM    = UTC
MEAN_ELEMENT_THEORY = SGP/SGP4

EPOCH          = 2026-02-17T06:00:02.000160
MEAN_MOTION    = 16.00737882
ECCENTRICITY   = .00014809
INCLINATION    = 97.2746
RA_OF_ASC_NODE = 158.7077
ARG_OF_PERICENTER = 49.6133
MEAN_ANOMALY   = 358.6242

EPHEMERIS_TYPE = 0
CLASSIFICATION_TYPE = U
NORAD_CAT_ID   = 67712
ELEMENT_SET_NO = 999
REV_AT_EPOCH   = 262
BSTAR          = -.25151289E-2
MEAN_MOTION_DOT = -.132141E-1
MEAN_MOTION_DDOT = .55355549E-3

